{
    "links": {
        "self": "http://www.neowsapp.com/rest/v1/neo/3789422?api_key=iIulBulltgU6a56xZRHN4H3l9WmuAYTsLGpBGhQ2"
    },
    "id": "3789422",
    "neo_reference_id": "3789422",
    "name": "(2017 VC15)",
    "designation": "2017 VC15",
    "nasa_jpl_url": "http://ssd.jpl.nasa.gov/sbdb.cgi?sstr=3789422",
    "absolute_magnitude_h": 26.3,
    "estimated_diameter": {
        "kilometers": {
            "estimated_diameter_min": 0.0146067964,
            "estimated_diameter_max": 0.0326617897
        },
        "meters": {
            "estimated_diameter_min": 14.6067964271,
            "estimated_diameter_max": 32.6617897446
        },
        "miles": {
            "estimated_diameter_min": 0.0090762397,
            "estimated_diameter_max": 0.020295089
        },
        "feet": {
            "estimated_diameter_min": 47.92256199,
            "estimated_diameter_max": 107.1581062656
        }
    },
    "is_potentially_hazardous_asteroid": false,
    "close_approach_data": [
        {
            "close_approach_date": "2017-11-15",
            "close_approach_date_full": "2017-Nov-15 05:57",
            "epoch_date_close_approach": 1510725420000,
            "relative_velocity": {
                "kilometers_per_second": "6.3469227774",
                "kilometers_per_hour": "22848.9219986394",
                "miles_per_hour": "14197.4315607657"
            },
            "miss_distance": {
                "astronomical": "0.0713140039",
                "lunar": "27.7411475171",
                "kilometers": "10668423.084611693",
                "miles": "6629050.7116116434"
            },
            "orbiting_body": "Earth"
        }
    ],
    "orbital_data": {
        "orbit_id": "2",
        "orbit_determination_date": "2019-07-19 05:26:28",
        "first_observation_date": "2017-11-15",
        "last_observation_date": "2017-11-19",
        "data_arc_in_days": 4,
        "observations_used": 23,
        "orbit_uncertainty": "8",
        "minimum_orbit_intersection": ".0711662",
        "jupiter_tisserand_invariant": "3.444",
        "epoch_osculation": "2458075.5",
        "eccentricity": ".5245571156290382",
        "semi_major_axis": "2.229625365371922",
        "inclination": "5.245517454871804",
        "ascending_node_longitude": "230.0606393827993",
        "orbital_period": "1216.035550481749",
        "perihelion_distance": "1.060059514779086",
        "perihelion_argument": "184.5591474873007",
        "aphelion_distance": "3.399191215964757",
        "perihelion_time": "2458074.512559038536",
        "mean_anomaly": ".2923259488476405",
        "mean_motion": ".2960439765575777",
        "equinox": "J2000",
        "orbit_class": {
            "orbit_class_type": "AMO",
            "orbit_class_description": "Near-Earth asteroid orbits similar to that of 1221 Amor",
            "orbit_class_range": "1.017 AU < q (perihelion) < 1.3 AU"
        }
    },
    "is_sentry_object": false
}